LUCH 5V (SDCM/PRN 141)  
1 39727U 14023A   26073.94377000 -.00000266  00000+0  00000+0 0  9999
2 39727   4.8997  70.6625 0003159 298.2232 238.0974  1.00268718 43417
GPS BIIF-6  (PRN 06)    
1 39741U 14026A   26073.23128864 -.00000074  00000+0  00000+0 0  9999
2 39741  56.5417 335.2169 0039739 325.0603  34.7215  2.00568021 86632
COSMOS 2500 (755)       
1 40001U 14032A   26073.24957203 -.00000022  00000+0  00000+0 0  9998
2 40001  65.2871 316.9197 0005044 197.8366 162.2080  2.13106240 91430
GPS BIIF-7  (PRN 09)    
1 40105U 14045A   26073.31949591  .00000042  00000+0  00000+0 0  9997
2 40105  55.2885  92.2427 0031424 120.3235 240.0488  2.00552225 84170
GSAT0201 (GALILEO 5)    
1 40128U 14050A   26070.32154952  .00000005  00000+0  00000+0 0  9994
2 40128  48.9815 277.4406 1658807 175.5932 186.0859  1.85520170 76503
GSAT0202 (GALILEO 6)    
1 40129U 14050B   26070.57744300  .00000009  00000+0  00000+0 0  9998
2 40129  48.9971 276.5149 1659654 176.3418 185.0558  1.85520847 78676
IRNSS-1C                
1 40269U 14061A   26073.58492885 -.00000158  00000+0  00000+0 0  9993
2 40269   6.2752  90.7645 0020133 356.7697  18.1080  1.00268237 41741
GPS BIIF-8  (PRN 03)    
1 40294U 14068A   26073.69541398 -.00000045  00000+0  00000+0 0  9999
2 40294  56.9266  34.5953 0063272  68.1120 292.5535  2.00570472 83315
COSMOS 2501 (702K)      
1 40315U 14075A   26073.04100405  .00000000  00000+0  00000+0 0  9990
2 40315  63.6166 193.6632 0020968 206.5488 153.3288  2.13101375 87829
GPS BIIF-9  (PRN 26)    
1 40534U 15013A   26073.32863892  .00000004  00000+0  00000+0 0  9997
2 40534  53.1840 208.0995 0108770  39.8522 320.9054  2.00556996 79926
GSAT0203 (GALILEO 7)    
1 40544U 15017A   26072.59966583 -.00000084  00000+0  00000+0 0  9990
2 40544  56.8181 344.2043 0004663 298.7140  61.2673  1.70475763 67578
GSAT0204 (GALILEO 8)    
1 40545U 15017B   26073.44184568 -.00000081  00000+0  00000+0 0  9998
2 40545  56.8237 344.1993 0004611 291.5238  68.4567  1.70475400 30632
BEIDOU-3S IGSO-1S (C31) 
1 40549U 15019A   26073.58735553 -.00000137  00000+0  00000+0 0  9997
2 40549  49.3720 296.6012 0035739 190.1845 353.2607  1.00271852 40129
GPS BIIF-10 (PRN 08)    
1 40730U 15033A   26072.99041878  .00000035  00000+0  00000+0 0  9995
2 40730  54.0576 271.0094 0114687  29.1823 331.4807  2.00561166 78084
BEIDOU-3S M2S (C58)     
1 40748U 15037A   26073.28328594 -.00000020  00000+0  00000+0 0  9999
2 40748  54.9541 305.3148 0008546 278.5992  81.3621  1.86232289 72351
BEIDOU-3S M1S (C57)     
1 40749U 15037B   26071.89165788 -.00000029  00000+0  00000+0 0  9998
2 40749  54.9520 305.3509 0004583  33.1330 326.9501  1.86254744 72331
GSAT0206 (GALILEO 10)   
1 40890U 15045B   26071.08432484  .00000037  00000+0  00000+0 0  9993
2 40890  54.9793 224.2827 0003542  50.5001 309.4904  1.70473824 65389
